{
  "type": "FeatureCollection",
  "features": [
    {
      "type": "Feature",
      "properties": {
        "norad_id": 38091,
        "name": "BEIDOU-2 G5 (C05)",
        "group": "gnss",
        "lat": -2.957944070758851,
        "lon": -39.27924694103574,
        "alt_km": 35735.47582079488,
        "timestamp": "2025-12-20T11:30:28.619635+00:00",
        "meta_object_name": "BEIDOU-2 G5 (C05)",
        "meta_object_id": "2012-008A",
        "meta_epoch": "2025-12-19T16:03:31.750272",
        "meta_mean_motion": 1.00268606,
        "meta_eccentricity": 0.0012969,
        "meta_inclination": 3.1258,
        "meta_ra_of_asc_node": 70.6861,
        "meta_arg_of_pericenter": 231.3522,
        "meta_mean_anomaly": 86.1393,
        "meta_ephemeris_type": 0,
        "meta_classification_type": "U",
        "meta_norad_cat_id": 38091,
        "meta_element_set_no": 999,
        "meta_rev_at_epoch": 5056,
        "meta_bstar": 0,
        "meta_mean_motion_dot": 7.9e-07,
        "meta_mean_motion_ddot": 0,
        "tle_line1": "1 38091U 12008A   25353.66911748  .00000079  00000+0  00000+0 0  9996",
        "tle_line2": "2 38091   3.1258  70.6861 0012969 231.3522  86.1393  1.00268606 50560"
      },
      "geometry": {
        "type": "Point",
        "coordinates": [
          -39.27924694103574,
          -2.957944070758851
        ]
      }
    },
    {
      "type": "Feature",
      "properties": {
        "norad_id": 38250,
        "name": "BEIDOU-2 M3 (C11)",
        "group": "gnss",
        "lat": 48.91620863852115,
        "lon": 1.7677997187592474,
        "alt_km": 21581.13215906668,
        "timestamp": "2025-12-20T11:30:28.619647+00:00",
        "meta_object_name": "BEIDOU-2 M3 (C11)",
        "meta_object_id": "2012-018A",
        "meta_epoch": "2025-12-19T07:23:03.381792",
        "meta_mean_motion": 1.86230015,
        "meta_eccentricity": 0.0024195,
        "meta_inclination": 55.9145,
        "meta_ra_of_asc_node": 310.9364,
        "meta_arg_of_pericenter": 274.9131,
        "meta_mean_anomaly": 84.7979,
        "meta_ephemeris_type": 0,
        "meta_classification_type": "U",
        "meta_norad_cat_id": 38250,
        "meta_element_set_no": 999,
        "meta_rev_at_epoch": 9259,
        "meta_bstar": 0,
        "meta_mean_motion_dot": -7.8e-07,
        "meta_mean_motion_ddot": 0,
        "tle_line1": "1 38250U 12018A   25353.30767803 -.00000078  00000+0  00000+0 0  9996",
        "tle_line2": "2 38250  55.9145 310.9364 0024195 274.9131  84.7979  1.86230015 92598"
      },
      "geometry": {
        "type": "Point",
        "coordinates": [
          1.7677997187592474,
          48.91620863852115
        ]
      }
    },
    {
      "type": "Feature",
      "properties": {
        "norad_id": 38251,
        "name": "BEIDOU-2 M4 (C12)",
        "group": "gnss",
        "lat": 50.56257730218216,
        "lon": 74.45313616083926,
        "alt_km": 21564.240400073995,
        "timestamp": "2025-12-20T11:30:28.619658+00:00",
        "meta_object_name": "BEIDOU-2 M4 (C12)",
        "meta_object_id": "2012-018B",
        "meta_epoch": "2025-12-19T05:45:13.599936",
        "meta_mean_motion": 1.86229684,
        "meta_eccentricity": 0.00153935,
        "meta_inclination": 55.8157,
        "meta_ra_of_asc_node": 310.167,
        "meta_arg_of_pericenter": 278.4783,
        "meta_mean_anomaly": 81.3347,
        "meta_ephemeris_type": 0,
        "meta_classification_type": "U",
        "meta_norad_cat_id": 38251,
        "meta_element_set_no": 999,
        "meta_rev_at_epoch": 9259,
        "meta_bstar": 0,
        "meta_mean_motion_dot": -7.8e-07,
        "meta_mean_motion_ddot": 0,
        "tle_line1": "1 38251U 12018B   25353.23974074 -.00000078  00000+0  00000+0 0  9999",
        "tle_line2": "2 38251  55.8157 310.1670 0015393 278.4783  81.3347  1.86229684 92597"
      },
      "geometry": {
        "type": "Point",
        "coordinates": [
          74.45313616083926,
          50.56257730218216
        ]
      }
    },
    {
      "type": "Feature",
      "properties": {
        "norad_id": 38652,
        "name": "SES-5 (EGNOS/PRN 136)",
        "group": "gnss",
        "lat": -0.058837287933524794,
        "lon": -93.10785874687481,
        "alt_km": 35779.2500498276,
        "timestamp": "2025-12-20T11:30:28.619670+00:00",
        "meta_object_name": "SES-5 (EGNOS/PRN 136)",
        "meta_object_id": "2012-036A",
        "meta_epoch": "2025-12-20T02:43:38.882208",
        "meta_mean_motion": 1.00269911,
        "meta_eccentricity": 0.0001747,
        "meta_inclination": 0.0571,
        "meta_ra_of_asc_node": 306.3785,
        "meta_arg_of_pericenter": 327.9832,
        "meta_mean_anomaly": 220.4774,
        "meta_ephemeris_type": 0,
        "meta_classification_type": "U",
        "meta_norad_cat_id": 38652,
        "meta_element_set_no": 999,
        "meta_rev_at_epoch": 4266,
        "meta_bstar": 0,
        "meta_mean_motion_dot": 5.8e-07,
        "meta_mean_motion_ddot": 0,
        "tle_line1": "1 38652U 12036A   25354.11364447  .00000058  00000+0  00000+0 0  9996",
        "tle_line2": "2 38652   0.0571 306.3785 0001747 327.9832 220.4774  1.00269911 42667"
      },
      "geometry": {
        "type": "Point",
        "coordinates": [
          -93.10785874687481,
          -0.058837287933524794
        ]
      }
    },
    {
      "type": "Feature",
      "properties": {
        "norad_id": 38775,
        "name": "BEIDOU-2 M6 (C14)",
        "group": "gnss",
        "lat": -43.08151088914774,
        "lon": 30.429041708891194,
        "alt_km": 21508.472727692002,
        "timestamp": "2025-12-20T11:30:28.619684+00:00",
        "meta_object_name": "BEIDOU-2 M6 (C14)",
        "meta_object_id": "2012-050B",
        "meta_epoch": "2025-12-19T11:42:06.639840",
        "meta_mean_motion": 1.86230927,
        "meta_eccentricity": 0.0011333,
        "meta_inclination": 56.384,
        "meta_ra_of_asc_node": 68.8435,
        "meta_arg_of_pericenter": 343.6526,
        "meta_mean_anomaly": 16.3469,
        "meta_ephemeris_type": 0,
        "meta_classification_type": "U",
        "meta_norad_cat_id": 38775,
        "meta_element_set_no": 999,
        "meta_rev_at_epoch": 8996,
        "meta_bstar": 0,
        "meta_mean_motion_dot": -5.2e-07,
        "meta_mean_motion_ddot": 0,
        "tle_line1": "1 38775U 12050B   25353.48757685 -.00000052  00000+0  00000+0 0  9992",
        "tle_line2": "2 38775  56.3840  68.8435 0011333 343.6526  16.3469  1.86230927 89961"
      },
      "geometry": {
        "type": "Point",
        "coordinates": [
          30.429041708891194,
          -43.08151088914774
        ]
      }
    },
    {
      "type": "Feature",
      "properties": {
        "norad_id": 38779,
        "name": "GSAT-10 (GAGAN/PRN 128)",
        "group": "gnss",
        "lat": 0.062147352829842,
        "lon": -15.066773755122504,
        "alt_km": 35793.61611613346,
        "timestamp": "2025-12-20T11:30:28.619696+00:00",
        "meta_object_name": "GSAT-10 (GAGAN/PRN 128)",
        "meta_object_id": "2012-051B",
        "meta_epoch": "2025-12-19T23:55:50.621952",
        "meta_mean_motion": 1.00272312,
        "meta_eccentricity": 0.0002427,
        "meta_inclination": 0.0741,
        "meta_ra_of_asc_node": 264.848,
        "meta_arg_of_pericenter": 218.7876,
        "meta_mean_anomaly": 47.1912,
        "meta_ephemeris_type": 0,
        "meta_classification_type": "U",
        "meta_norad_cat_id": 38779,
        "meta_element_set_no": 999,
        "meta_rev_at_epoch": 4830,
        "meta_bstar": 0,
        "meta_mean_motion_dot": -1.41e-06,
        "meta_mean_motion_ddot": 0,
        "tle_line1": "1 38779U 12051B   25353.99711368 -.00000141  00000+0  00000+0 0  9990",
        "tle_line2": "2 38779   0.0741 264.8480 0002427 218.7876  47.1912  1.00272312 48301"
      },
      "geometry": {
        "type": "Point",
        "coordinates": [
          -15.066773755122504,
          0.062147352829842
        ]
      }
    },
    {
      "type": "Feature",
      "properties": {
        "norad_id": 38833,
        "name": "GPS BIIF-3  (PRN 24)",
        "group": "gnss",
        "lat": 48.46150052324084,
        "lon": -85.62027758893005,
        "alt_km": 19855.072567718435,
        "timestamp": "2025-12-20T11:30:28.619708+00:00",
        "meta_object_name": "GPS BIIF-3  (PRN 24)",
        "meta_object_id": "2012-053A",
        "meta_epoch": "2025-12-19T07:58:55.415712",
        "meta_mean_motion": 2.0056508,
        "meta_eccentricity": 0.0176,
        "meta_inclination": 53.559,
        "meta_ra_of_asc_node": 150.9686,
        "meta_arg_of_pericenter": 64.0969,
        "meta_mean_anomaly": 297.6893,
        "meta_ephemeris_type": 0,
        "meta_classification_type": "U",
        "meta_norad_cat_id": 38833,
        "meta_element_set_no": 999,
        "meta_rev_at_epoch": 9583,
        "meta_bstar": 0,
        "meta_mean_motion_dot": 5.7e-07,
        "meta_mean_motion_ddot": 0,
        "tle_line1": "1 38833U 12053A   25353.33258583  .00000057  00000+0  00000+0 0  9991",
        "tle_line2": "2 38833  53.5590 150.9686 0176000  64.0969 297.6893  2.00565080 95832"
      },
      "geometry": {
        "type": "Point",
        "coordinates": [
          -85.62027758893005,
          48.46150052324084
        ]
      }
    }
  ]
}